{"type":"FeatureCollection","features":[{"type":"Feature","geometry":{"type":"Polygon","coordinates":[[[-118.444755,34.069821],[-118.4451199,34.0671394],[-118.4408768,34.0671248],[-118.44032,34.066584],[-118.439839,34.066323],[-118.439357,34.067014],[-118.439213,34.0675],[-118.438993,34.069608],[-118.439493,34.069642],[-118.440021,34.069866],[-118.440156,34.07],[-118.442199,34.06991],[-118.444755,34.069821]]]},"properties":{"Region":"South Campus"}},{"type":"Feature","geometry":{"type":"Polygon","coordinates":[[[-118.4431023,34.0699608],[-118.442244,34.0699868],[-118.4401085,34.0700779],[-118.4399568,34.0699218],[-118.4394701,34.0697267],[-118.4389886,34.0696791],[-118.438578,34.070734],[-118.437724,34.071347],[-118.43738,34.071831],[-118.437286,34.072245],[-118.437298,34.072623],[-118.438816,34.075845],[-118.438745,34.076474],[-118.439077,34.077043],[-118.439101,34.077809],[-118.439528,34.078202],[-118.440334,34.077652],[-118.441117,34.077456],[-118.442934,34.077408],[-118.444217,34.076494],[-118.444914,34.0734379],[-118.4447043,34.0731484],[-118.444695,34.0724807],[-118.4436323,34.072477],[-118.4436314,34.0709779],[-118.4431297,34.0709731],[-118.4431023,34.0699608]]]},"properties":{"Region":"North Campus"}},{"type":"Feature","geometry":{"type":"Polygon","coordinates":[[[-118.4449735,34.0734112],[-118.445563,34.073327],[-118.447362,34.073327],[-118.448167,34.07319],[-118.448659,34.073332],[-118.4491273,34.0732227],[-118.4494391,34.0726278],[-118.4494293,34.0711058],[-118.4487591,34.0699658],[-118.4487154,34.0694085],[-118.4483434,34.0691049],[-118.448372,34.068735],[-118.448947,34.068545],[-118.448343,34.067425],[-118.4477768,34.0669603],[-118.4474261,34.0671274],[-118.445224,34.0671318],[-118.4448053,34.0698912],[-118.443163,34.0699485],[-118.4431895,34.0709214],[-118.4436913,34.0709288],[-118.4436914,34.0724264],[-118.4447628,34.0724318],[-118.4447678,34.0731381],[-118.4449735,34.0734112]]]},"properties":{"Region":"Central Campus"}},{"type":"Feature","geometry":{"type":"Polygon","coordinates":[[[-118.4489686,34.0686091],[-118.4484573,34.0687796],[-118.4484307,34.0690767],[-118.4487927,34.0693793],[-118.4488313,34.0699572],[-118.449517,34.071098],[-118.449517,34.072645],[-118.449164,34.073298],[-118.450014,34.075171],[-118.450741,34.075686],[-118.453458,34.076975],[-118.453977,34.07701],[-118.454662,34.076563],[-118.455554,34.075755],[-118.455445,34.074583],[-118.455014,34.070316],[-118.453629,34.070405],[-118.453037,34.070661],[-118.452553,34.070661],[-118.451934,34.070338],[-118.450791,34.069547],[-118.449163,34.0688],[-118.4489686,34.0686091]]]},"properties":{"Region":"The Hill"}},{"type":"Feature","geometry":{"type":"Polygon","coordinates":[[[-118.447749,34.066917],[-118.44755,34.066574],[-118.447565,34.066118],[-118.448162,34.064723],[-118.448285,34.063671],[-118.4425,34.063722],[-118.442117,34.063887],[-118.441796,34.064343],[-118.441765,34.067081],[-118.447397,34.067081],[-118.447749,34.066917]]]},"properties":{"Region":"Medical Center"}}]}